CCSDS_OMM_VERS = 2.0
CREATION_DATE  = 
ORIGINATOR     = 

OBJECT_NAME    = STARLINK-35778
OBJECT_ID      = 2025-288Q
CENTER_NAME    = EARTH
REF_FRAME      = TEME
TIME_SYSTEM    = UTC
MEAN_ELEMENT_THEORY = SGP/SGP4

EPOCH          = 2026-01-04T06:00:02.000160
MEAN_MOTION    = 15.40704106
ECCENTRICITY   = .00009502
INCLINATION    = 43.0007
RA_OF_ASC_NODE = 32.4304
ARG_OF_PERICENTER = 258.7173
MEAN_ANOMALY   = 109.7135

EPHEMERIS_TYPE = 0
CLASSIFICATION_TYPE = U
NORAD_CAT_ID   = 66973
ELEMENT_SET_NO = 999
REV_AT_EPOCH   = 544
BSTAR          = .4028534E-3
MEAN_MOTION_DOT = .16563E-3
MEAN_MOTION_DDOT = 0

CCSDS_OMM_VERS = 2.0
CREATION_DATE  = 
ORIGINATOR     = 

OBJECT_NAME    = STARLINK-35780
OBJECT_ID      = 2025-288R
CENTER_NAME    = EARTH
REF_FRAME      = TEME
TIME_SYSTEM    = UTC
MEAN_ELEMENT_THEORY = SGP/SGP4

EPOCH          = 2026-01-04T06:00:02.000160
MEAN_MOTION    = 15.40678357
ECCENTRICITY   = .00006902
INCLINATION    = 43.0003
RA_OF_ASC_NODE = 32.3703
ARG_OF_PERICENTER = 262.5026
MEAN_ANOMALY   = 130.8804

EPHEMERIS_TYPE = 0
CLASSIFICATION_TYPE = U
NORAD_CAT_ID   = 66974
ELEMENT_SET_NO = 999
REV_AT_EPOCH   = 544
BSTAR          = .3889118E-3
MEAN_MOTION_DOT = .15965E-3
MEAN_MOTION_DDOT = 0

CCSDS_OMM_VERS = 2.0
CREATION_DATE  = 
ORIGINATOR     = 

OBJECT_NAME    = STARLINK-35777
OBJECT_ID      = 2025-288S
CENTER_NAME    = EARTH
REF_FRAME      = TEME
TIME_SYSTEM    = UTC
MEAN_ELEMENT_THEORY = SGP/SGP4

EPOCH          = 2026-01-04T06:00:02.000160
MEAN_MOTION    = 15.40682968
ECCENTRICITY   = .00011851
INCLINATION    = 43.0001
RA_OF_ASC_NODE = 32.3383
ARG_OF_PERICENTER = 260.7128
MEAN_ANOMALY   = 145.1006

EPHEMERIS_TYPE = 0
CLASSIFICATION_TYPE = U
NORAD_CAT_ID   = 66975
ELEMENT_SET_NO = 999
REV_AT_EPOCH   = 544
BSTAR          = .34266077E-3
MEAN_MOTION_DOT = .14028E-3
MEAN_MOTION_DDOT = 0

CCSDS_OMM_VERS = 2.0
CREATION_DATE  = 
ORIGINATOR     = 

OBJECT_NAME    = STARLINK-35772
OBJECT_ID      = 2025-288T
CENTER_NAME    = EARTH
REF_FRAME      = TEME
TIME_SYSTEM    = UTC
MEAN_ELEMENT_THEORY = SGP/SGP4

EPOCH          = 2026-01-04T03:04:57.410400
MEAN_MOTION    = 15.40719174
ECCENTRICITY   = .00013201
INCLINATION    = 43.0019
RA_OF_ASC_NODE = 35.0295
ARG_OF_PERICENTER = 286.4447
MEAN_ANOMALY   = 73.6264

EPHEMERIS_TYPE = 0
CLASSIFICATION_TYPE = U
NORAD_CAT_ID   = 66976
ELEMENT_SET_NO = 999
REV_AT_EPOCH   = 533
BSTAR          = .17706553E-2
MEAN_MOTION_DOT = .74433E-3
MEAN_MOTION_DDOT = 0

CCSDS_OMM_VERS = 2.0
CREATION_DATE  = 
ORIGINATOR     = 

OBJECT_NAME    = STARLINK-35770
OBJECT_ID      = 2025-288U
CENTER_NAME    = EARTH
REF_FRAME      = TEME
TIME_SYSTEM    = UTC
MEAN_ELEMENT_THEORY = SGP/SGP4

EPOCH          = 2026-01-01T14:00:43.463232
MEAN_MOTION    = 15.50604727
ECCENTRICITY   = .000113
INCLINATION    = 43.0009
RA_OF_ASC_NODE = 47.6983
ARG_OF_PERICENTER = 275.3451
MEAN_ANOMALY   = 84.7280

EPHEMERIS_TYPE = 0
CLASSIFICATION_TYPE = U
NORAD_CAT_ID   = 66977
ELEMENT_SET_NO = 999
REV_AT_EPOCH   = 496
BSTAR          = .17973E-2
MEAN_MOTION_DOT = .106642E-2
MEAN_MOTION_DDOT = 0

CCSDS_OMM_VERS = 2.0
CREATION_DATE  = 
ORIGINATOR     = 

OBJECT_NAME    = STARLINK-35787
OBJECT_ID      = 2025-288V
CENTER_NAME    = EARTH
REF_FRAME      = TEME
TIME_SYSTEM    = UTC
MEAN_ELEMENT_THEORY = SGP/SGP4

EPOCH          = 2026-01-04T04:27:42.911712
MEAN_MOTION    = 15.40706108
ECCENTRICITY   = .000296
INCLINATION    = 43.0004
RA_OF_ASC_NODE = 32.8266
ARG_OF_PERICENTER = 262.1234
MEAN_ANOMALY   = 97.9286

EPHEMERIS_TYPE = 0
CLASSIFICATION_TYPE = U
NORAD_CAT_ID   = 66978
ELEMENT_SET_NO = 999
REV_AT_EPOCH   = 536
BSTAR          = .21290846E-2
MEAN_MOTION_DOT = .89711E-3
MEAN_MOTION_DDOT = 0

CCSDS_OMM_VERS = 2.0
CREATION_DATE  = 
ORIGINATOR     = 

OBJECT_NAME    = STARLINK-36107
OBJECT_ID      = 2025-288W
CENTER_NAME    = EARTH
REF_FRAME      = TEME
TIME_SYSTEM    = UTC
MEAN_ELEMENT_THEORY = SGP/SGP4

EPOCH          = 2026-01-04T02:16:18.903936
MEAN_MOTION    = 15.50636151
ECCENTRICITY   = .00014292
INCLINATION    = 43.0009
RA_OF_ASC_NODE = 32.9963
ARG_OF_PERICENTER = 241.3351
MEAN_ANOMALY   = 118.7365

EPHEMERIS_TYPE = 0
CLASSIFICATION_TYPE = U
NORAD_CAT_ID   = 66979
ELEMENT_SET_NO = 999
REV_AT_EPOCH   = 535
BSTAR          = .25633359E-2
MEAN_MOTION_DOT = .15333E-2
MEAN_MOTION_DDOT = 0

CCSDS_OMM_VERS = 2.0
CREATION_DATE  = 
ORIGINATOR     = 

OBJECT_NAME    = STARLINK-36086
OBJECT_ID      = 2025-288X
CENTER_NAME    = EARTH
REF_FRAME      = TEME
TIME_SYSTEM    = UTC
MEAN_ELEMENT_THEORY = SGP/SGP4

EPOCH          = 2026-01-04T06:00:02.000160
MEAN_MOTION    = 15.40679158
ECCENTRICITY   = .0000778
INCLINATION    = 43.0000
RA_OF_ASC_NODE = 32.2770
ARG_OF_PERICENTER = 235.2825
MEAN_ANOMALY   = 195.4122

EPHEMERIS_TYPE = 0
CLASSIFICATION_TYPE = U
NORAD_CAT_ID   = 66980
ELEMENT_SET_NO = 999
REV_AT_EPOCH   = 544
BSTAR          = .45555801E-3
MEAN_MOTION_DOT = .1876E-3
MEAN_MOTION_DDOT = 0

CCSDS_OMM_VERS = 2.0
CREATION_DATE  = 
ORIGINATOR     = 

OBJECT_NAME    = STARLINK-36142
OBJECT_ID      = 2025-288Y
CENTER_NAME    = EARTH
REF_FRAME      = TEME
TIME_SYSTEM    = UTC
MEAN_ELEMENT_THEORY = SGP/SGP4

EPOCH          = 2026-01-04T06:00:02.000160
MEAN_MOTION    = 15.40676935
ECCENTRICITY   = .00011712
INCLINATION    = 42.9996
RA_OF_ASC_NODE = 32.2160
ARG_OF_PERICENTER = 269.1871
MEAN_ANOMALY   = 186.4064

EPHEMERIS_TYPE = 0
CLASSIFICATION_TYPE = U
NORAD_CAT_ID   = 66981
ELEMENT_SET_NO = 999
REV_AT_EPOCH   = 544
BSTAR          = .43668358E-3
MEAN_MOTION_DOT = .17967E-3
MEAN_MOTION_DDOT = 0

CCSDS_OMM_VERS = 2.0
CREATION_DATE  = 
ORIGINATOR     = 

OBJECT_NAME    = STARLINK-36113
OBJECT_ID      = 2025-288Z
CENTER_NAME    = EARTH
REF_FRAME      = TEME
TIME_SYSTEM    = UTC
MEAN_ELEMENT_THEORY = SGP/SGP4

EPOCH          = 2026-01-04T02:14:51.243360
MEAN_MOTION    = 15.50392213
ECCENTRICITY   = .00037557
INCLINATION    = 43.0006
RA_OF_ASC_NODE = 32.9870
ARG_OF_PERICENTER = 245.9794
MEAN_ANOMALY   = 114.0673

EPHEMERIS_TYPE = 0
CLASSIFICATION_TYPE = U
NORAD_CAT_ID   = 66982
ELEMENT_SET_NO = 999
REV_AT_EPOCH   = 535
BSTAR          = .16080049E-2
MEAN_MOTION_DOT = .94524E-3
MEAN_MOTION_DDOT = 0

CCSDS_OMM_VERS = 2.0
CREATION_DATE  = 
ORIGINATOR     = 

OBJECT_NAME    = STARLINK-36145
OBJECT_ID      = 2025-288AA
CENTER_NAME    = EARTH
REF_FRAME      = TEME
TIME_SYSTEM    = UTC
MEAN_ELEMENT_THEORY = SGP/SGP4

EPOCH          = 2026-01-04T02:13:49.736064
MEAN_MOTION    = 15.50598719
ECCENTRICITY   = .00010938
INCLINATION    = 43.0005
RA_OF_ASC_NODE = 32.9821
ARG_OF_PERICENTER = 250.7498
MEAN_ANOMALY   = 109.3244

EPHEMERIS_TYPE = 0
CLASSIFICATION_TYPE = U
NORAD_CAT_ID   = 66983
ELEMENT_SET_NO = 999
REV_AT_EPOCH   = 535
BSTAR          = .25568142E-2
MEAN_MOTION_DOT = .152723E-2
MEAN_MOTION_DDOT = 0

CCSDS_OMM_VERS = 2.0
CREATION_DATE  = 
ORIGINATOR     = 

OBJECT_NAME    = STARLINK-35591
OBJECT_ID      = 2025-288AB
CENTER_NAME    = EARTH
REF_FRAME      = TEME
TIME_SYSTEM    = UTC
MEAN_ELEMENT_THEORY = SGP/SGP4

EPOCH          = 2026-01-04T02:14:19.286592
MEAN_MOTION    = 15.50589105
ECCENTRICITY   = .0001388
INCLINATION    = 43.0001
RA_OF_ASC_NODE = 32.9837
ARG_OF_PERICENTER = 258.5006
MEAN_ANOMALY   = 101.5698

EPHEMERIS_TYPE = 0
CLASSIFICATION_TYPE = U
NORAD_CAT_ID   = 66984
ELEMENT_SET_NO = 999
REV_AT_EPOCH   = 535
BSTAR          = .20522149E-2
MEAN_MOTION_DOT = .121989E-2
MEAN_MOTION_DDOT = 0

