STARLINK-35778          
1 66973U 25288Q   26004.25002315  .00016563  00000+0  40285-3 0  9998
2 66973  43.0007  32.4304 0000950 258.7173 109.7135 15.40704106  5447
STARLINK-35780          
1 66974U 25288R   26004.25002315  .00015965  00000+0  38891-3 0  9994
2 66974  43.0003  32.3703 0000690 262.5026 130.8804 15.40678357  5443
STARLINK-35777          
1 66975U 25288S   26004.25002315  .00014028  00000+0  34266-3 0  9996
2 66975  43.0001  32.3383 0001185 260.7128 145.1006 15.40682968  5445
STARLINK-35772          
1 66976U 25288T   26004.12844225  .00074433  00000+0  17707-2 0  9993
2 66976  43.0019  35.0295 0001320 286.4447  73.6264 15.40719174  5336
STARLINK-35770          
1 66977U 25288U   26001.58383638  .00106642  00000+0  17973-2 0  9990
2 66977  43.0009  47.6983 0001130 275.3451  84.7280 15.50604727  4967
STARLINK-35787          
1 66978U 25288V   26004.18591333  .00089711  00000+0  21291-2 0  9998
2 66978  43.0004  32.8266 0002960 262.1234  97.9286 15.40706108  5360
STARLINK-36107          
1 66979U 25288W   26004.09466324  .00153330  00000+0  25633-2 0  9993
2 66979  43.0009  32.9963 0001429 241.3351 118.7365 15.50636151  5359
STARLINK-36086          
1 66980U 25288X   26004.25002315  .00018760  00000+0  45556-3 0  9993
2 66980  43.0000  32.2770 0000778 235.2825 195.4122 15.40679158  5441
STARLINK-36142          
1 66981U 25288Y   26004.25002315  .00017967  00000+0  43668-3 0  9994
2 66981  42.9996  32.2160 0001171 269.1871 186.4064 15.40676935  5447
STARLINK-36113          
1 66982U 25288Z   26004.09364865  .00094524  00000+0  16080-2 0  9999
2 66982  43.0006  32.9870 0003755 245.9794 114.0673 15.50392213  5351
STARLINK-36145          
1 66983U 25288AA  26004.09293676  .00152723  00000+0  25568-2 0  9998
2 66983  43.0005  32.9821 0001093 250.7498 109.3244 15.50598719  5355
STARLINK-35591          
1 66984U 25288AB  26004.09327878  .00121989  00000+0  20522-2 0  9996
2 66984  43.0001  32.9837 0001388 258.5006 101.5698 15.50589105  5353
